{"fetched_at":"2026-03-29T16:36:15Z","count":15609,"tles":[{"name":"STARLINK-31507","line1":"1 59401U 24064D   26087.88899537  .00001067  00000+0  48288-4 0  9992","line2":"2 59401  43.0031 307.6077 0001331 264.6311  95.4389 15.27582928112105","category":"Starlink"}]}