{
  "norad_id": 59401,
  "name": "STARLINK-31507",
  "history": [
    {
      "epoch": "2026-03-28T21:20:09.199968",
      "apogee_km": 483.9535512707471,
      "perigee_km": 482.1271058658831,
      "latitude_deg": -32.395836124572966,
      "longitude_deg": -154.55644447985105,
      "semi_major_axis_km": 6861.177328568315,
      "eccentricity": 0.0001331,
      "inclination_deg": 43.0031,
      "raan_deg": 307.6077,
      "arg_perigee_deg": 264.6311,
      "mean_anomaly_deg": 95.4389,
      "mean_motion_rev_day": 15.27582928
    }
  ]
}